{
    "links": {
        "self": "http://www.neowsapp.com/rest/v1/neo/3727634?api_key=iIulBulltgU6a56xZRHN4H3l9WmuAYTsLGpBGhQ2"
    },
    "id": "3727634",
    "neo_reference_id": "3727634",
    "name": "(2015 RG83)",
    "designation": "2015 RG83",
    "nasa_jpl_url": "http://ssd.jpl.nasa.gov/sbdb.cgi?sstr=3727634",
    "absolute_magnitude_h": 25.1,
    "estimated_diameter": {
        "kilometers": {
            "estimated_diameter_min": 0.0253837029,
            "estimated_diameter_max": 0.0567596853
        },
        "meters": {
            "estimated_diameter_min": 25.3837029364,
            "estimated_diameter_max": 56.7596852866
        },
        "miles": {
            "estimated_diameter_min": 0.0157726969,
            "estimated_diameter_max": 0.0352688224
        },
        "feet": {
            "estimated_diameter_min": 83.279867942,
            "estimated_diameter_max": 186.2194458756
        }
    },
    "is_potentially_hazardous_asteroid": false,
    "close_approach_data": [
        {
            "close_approach_date": "2015-09-19",
            "close_approach_date_full": "2015-Sep-19 20:13",
            "epoch_date_close_approach": 1442693580000,
            "relative_velocity": {
                "kilometers_per_second": "4.4920595907",
                "kilometers_per_hour": "16171.4145264337",
                "miles_per_hour": "10048.2880983832"
            },
            "miss_distance": {
                "astronomical": "0.1533374071",
                "lunar": "59.6482513619",
                "kilometers": "22938949.493482877",
                "miles": "14253602.2669306226"
            },
            "orbiting_body": "Earth"
        }
    ],
    "orbital_data": {
        "orbit_id": "11",
        "orbit_determination_date": "2017-04-06 08:31:57",
        "first_observation_date": "2015-09-11",
        "last_observation_date": "2015-10-18",
        "data_arc_in_days": 37,
        "observations_used": 39,
        "orbit_uncertainty": "7",
        "minimum_orbit_intersection": ".150201",
        "jupiter_tisserand_invariant": "3.476",
        "epoch_osculation": "2459000.5",
        "eccentricity": ".4840131686039147",
        "semi_major_axis": "2.234143597422695",
        "inclination": ".508600200618595",
        "ascending_node_longitude": "36.21925621452305",
        "orbital_period": "1219.733781659825",
        "perihelion_distance": "1.152788675717988",
        "perihelion_argument": "325.5664039409253",
        "aphelion_distance": "3.315498519127403",
        "perihelion_time": "2458508.690224613537",
        "mean_anomaly": "145.1558707328688",
        "mean_motion": ".2951463716206243",
        "equinox": "J2000",
        "orbit_class": {
            "orbit_class_type": "AMO",
            "orbit_class_description": "Near-Earth asteroid orbits similar to that of 1221 Amor",
            "orbit_class_range": "1.017 AU < q (perihelion) < 1.3 AU"
        }
    },
    "is_sentry_object": false
}